OBJECT_NAME,OBJECT_ID,EPOCH,MEAN_MOTION,ECCENTRICITY,INCLINATION,RA_OF_ASC_NODE,ARG_OF_PERICENTER,MEAN_ANOMALY,EPHEMERIS_TYPE,CLASSIFICATION_TYPE,NORAD_CAT_ID,ELEMENT_SET_NO,REV_AT_EPOCH,BSTAR,MEAN_MOTION_DOT,MEAN_MOTION_DDOT
BEIDOU-2 IGSO-5 (C10),2011-073A,2026-06-13T18:56:52.407744,1.00273385,.01138383,47.6849,271.5886,221.6054,144.8748,0,U,37948,999,5310,0,-.164E-5,0
BEIDOU-2 G5 (C05),2012-008A,2026-06-14T11:40:29.291232,1.00271091,.0009141,3.5657,69.7122,273.0876,153.7613,0,U,38091,999,5234,0,.62E-6,0
BEIDOU-2 M3 (C11),2012-018A,2026-06-12T21:25:55.625088,1.86229873,.00201002,55.7621,305.0207,274.1537,85.5973,0,U,38250,999,9586,0,-.7E-6,0
BEIDOU-2 M4 (C12),2012-018B,2026-06-13T08:41:38.889888,1.86229521,.00112871,55.6617,304.2191,276.0779,83.7740,0,U,38251,999,9587,0,-.7E-6,0
SES-5 (EGNOS/PRN 136),2012-036A,2026-06-14T07:59:46.533408,1.00268156,.0001724,0.0491,313.1035,125.3552,309.0952,0,U,38652,999,4442,0,.41E-6,0
BEIDOU-2 M6 (C14),2012-050B,2026-06-13T01:43:42.616992,1.86230840,.0013772,56.5408,63.0305,356.7295,3.2873,0,U,38775,999,9323,0,-.56E-6,0
GSAT-10 (GAGAN/PRN 128),2012-051B,2026-06-14T11:47:28.618944,1.00270098,.0007755,0.0877,263.3009,183.8560,75.5194,0,U,38779,999,5007,0,-.157E-5,0
GPS BIIF-3  (PRN 24),2012-053A,2026-06-14T07:47:42.924768,2.00567366,.0180133,53.5854,143.7166,65.7132,296.1316,0,U,38833,999,9938,0,.53E-6,0
GSAT0103 (GALILEO-FM3),2012-055A,2026-06-11T00:33:20.070144,1.70473353,.0004991,55.8029,101.7147,304.7651,55.1525,0,U,38857,999,8490,0,.14E-6,0
BEIDOU-2 G6 (C02),2012-059A,2026-06-14T14:01:23.399904,1.00272483,.0009642,4.4136,73.5498,324.3553,159.3564,0,U,38953,999,4988,0,-.172E-5,0
LUCH 5B (SDCM/PRN 125),2012-061A,2026-06-12T23:23:12.366816,1.00272671,.00023465,10.4721,49.9205,149.8007,36.0976,0,U,38977,999,4956,0,-.133E-5,0
COSMOS 2485 (747),2013-019A,2026-06-13T03:44:30.662016,2.13103375,.00232424,65.4173,73.7400,234.2149,125.5877,0,U,39155,999,10219,0,-.31E-6,0
GPS BIIF-4  (PRN 27),2013-023A,2026-06-13T16:38:04.253856,2.00563399,.01415507,54.5069,269.1160,51.0337,310.2421,0,U,39166,999,9581,0,-.2E-6,0
IRNSS-1A,2013-034A,2026-06-09T14:20:49.169184,1.00272948,.00174117,35.7049,63.9797,184.2474,279.8453,0,U,39199,999,4729,0,.7E-6,0
GPS BIIF-5  (PRN 30),2014-008A,2026-06-14T04:38:21.907968,2.00559538,.0084237,53.6541,149.4417,231.2354,127.9952,0,U,39533,999,8962,0,.63E-6,0
ASTRA 5B (EGNOS/PRN 123),2014-011B,2026-06-14T11:30:30.248064,1.00272205,.000175,0.0473,334.1538,98.2630,26.4805,0,U,39617,999,4464,0,.144E-5,0
COSMOS 2492 (754),2014-012A,2026-06-14T01:16:45.888096,2.13103207,.0010453,65.2995,314.0427,325.1473,34.7685,0,U,39620,999,9517,0,-.53E-6,0
IRNSS-1B,2014-017A,2026-06-13T18:33:03.376800,1.00275287,.00230477,28.9276,240.4620,189.4432,165.5473,0,U,39635,999,4475,0,.133E-5,0
LUCH 5V (SDCM/PRN 141),2014-023A,2026-06-14T06:42:45.494208,1.00275618,.0001868,5.1238,69.7710,44.9595,343.2136,0,U,39727,999,4433,0,-.265E-5,0
GPS BIIF-6  (PRN 06),2014-026A,2026-06-13T11:19:06.657312,2.00561124,.0038188,56.5002,331.6621,326.6105,33.1472,0,U,39741,999,8846,0,-.72E-6,0
COSMOS 2500 (755),2014-032A,2026-06-13T06:49:49.213632,2.13106047,.0007281,65.2352,313.8168,184.1744,175.8059,0,U,40001,999,9337,0,-.51E-6,0
GPS BIIF-7  (PRN 09),2014-045A,2026-06-14T01:29:09.727296,2.00558116,.0033186,55.3513,88.5895,118.2823,242.0384,0,U,40105,999,8601,0,-.3E-6,0
GSAT0201 (GALILEO 5),2014-050A,2026-06-13T15:27:24.646464,1.85519952,.16739532,48.8793,273.5817,179.2575,181.0766,0,U,40128,999,7825,0,-.43E-6,0
GSAT0202 (GALILEO 6),2014-050B,2026-06-13T08:39:16.158816,1.85520497,.16752446,48.8965,272.6788,179.9701,180.0913,0,U,40129,999,8041,0,-.42E-6,0
IRNSS-1C,2014-061A,2026-06-14T08:22:07.006944,1.00269780,.0022711,6.5109,88.9845,2.0879,20.0997,0,U,40269,999,4266,0,-.158E-5,0
GPS BIIF-8  (PRN 03),2014-068A,2026-06-12T22:26:25.265760,2.00575830,.00669623,56.9847,31.1185,70.4280,290.3526,0,U,40294,999,8512,0,-.61E-6,0
COSMOS 2501 (702K),2014-075A,2026-06-13T01:51:27.271008,2.13101424,.00225676,63.6161,190.5143,212.1681,147.7675,0,U,40315,999,8976,0,.117E-5,0
GPS BIIF-9  (PRN 26),2015-013A,2026-06-13T13:44:01.625856,2.00551527,.010943,53.1681,204.3272,40.1118,320.7798,0,U,40534,999,8175,0,.93E-6,0
GSAT0203 (GALILEO 7),2015-017A,2026-06-11T08:19:41.682144,1.70476009,.00020918,56.7895,341.7548,278.1581,81.8319,0,U,40544,999,6910,0,-.66E-6,0
GSAT0204 (GALILEO 8),2015-017B,2026-06-11T14:28:00.634368,1.70475611,.00018922,56.7979,341.7663,248.9862,111.0068,0,U,40545,999,3215,0,-.67E-6,0
